NORAD_CAT_ID,OBJECT_NAME,OBJECT_TYPE,EPOCH,MEAN_MOTION,ECCENTRICITY,INCLINATION,RA_OF_ASC_NODE,ARG_OF_PERICENTER,MEAN_ANOMALY,BSTAR,MEAN_MOTION_DOT,MEAN_MOTION_DDOT,TLE_LINE0,TLE_LINE1,TLE_LINE2,SEMIMAJOR_AXIS,PERIOD,APOGEE,PERIGEE,DECAYED
55302.0,STARLINK-5321,PAYLOAD,2023-11-12 12:27:34,14.98329711,0.0002648,70.0006,2.9057,263.9504,96.1353,6.2869e-05,6.57e-06,0.0,0 STARLINK-5321,1 55302U 23010AK  23316.51914552  .00000657  00000-0  62869-4 0  9991,2 55302  70.0006   2.9057 0002648 263.9504  96.1353 14.98329711 46228,6950.194,96.107,573.899,570.218,0.0
55302.0,STARLINK-5321,PAYLOAD,2023-11-12 20:28:14,14.98335956,0.0002514,70.0006,2.0636,269.0882,90.9989,-2.8856e-05,-4.37e-06,0.0,0 STARLINK-5321,1 55302U 23010AK  23316.85294407 -.00000437  00000-0 -28856-4 0  9994,2 55302  70.0006   2.0636 0002514 269.0882  90.9989 14.98335956 46270,6950.174,96.107,573.787,570.292,0.0
55302.0,STARLINK-5321,PAYLOAD,2023-11-13 10:53:26,14.98334039,0.0002691,70.0003,0.549,268.5409,91.5441,3.2438e-05,2.94e-06,0.0,0 STARLINK-5321,1 55302U 23010AK  23317.45378138  .00000294  00000-0  32438-4 0  9995,2 55302  70.0003   0.5490 0002691 268.5409  91.5441 14.98334039 46364,6950.18,96.107,573.916,570.175,0.0
55302.0,STARLINK-5321,PAYLOAD,2023-11-13 12:29:34,14.98334272,0.0002683,70.0003,0.3806,267.9014,92.1838,4.1166e-05,3.98e-06,0.0,0 STARLINK-5321,1 55302U 23010AK  23317.52054074  .00000398  00000-0  41166-4 0  9996,2 55302  70.0003   0.3806 0002683 267.9014  92.1838 14.98334272 46062,6950.18,96.107,573.909,570.18,0.0
55302.0,STARLINK-5321,PAYLOAD,2023-11-13 20:30:15,14.98327196,0.0002391,70.0016,359.5383,272.9149,87.1737,-5.9378e-05,-8.01e-06,0.0,0 STARLINK-5321,1 55302U 23010AK  23317.85434841 -.00000801  00000-0 -59378-4 0  9991,2 55302  70.0016 359.5383 0002391 272.9149  87.1737 14.98327196 46425,6950.202,96.107,573.728,570.405,0.0
55302.0,STARLINK-5321,PAYLOAD,2023-11-14 02:54:47,14.98325823,0.0002738,70.0018,358.8652,270.5317,89.5529,-3.4291e-05,-5.02e-06,0.0,0 STARLINK-5321,1 55302U 23010AK  23318.12138744 -.00000502  00000-0 -34291-4 0  9990,2 55302  70.0018 358.8652 0002738 270.5317  89.5529 14.98325823 46154,6950.206,96.107,573.974,570.168,0.0
55302.0,STARLINK-5321,PAYLOAD,2023-11-14 12:31:36,14.98321304,0.0002603,70.0002,357.8545,261.9898,98.0966,-6.6261e-05,-8.83e-06,0.0,0 STARLINK-5321,1 55302U 23010AK  23318.52195229 -.00000883  00000-0 -66261-4 0  9999,2 55302  70.0002 357.8545 0002603 261.9898  98.0966 14.98321304 46527,6950.22,96.108,573.894,570.276,0.0
55302.0,STARLINK-5321,PAYLOAD,2023-11-14 20:32:16,14.98326527,0.0002655,70.0005,357.0128,269.1467,90.9388,-6.6324e-05,-8.84e-06,0.0,0 STARLINK-5321,1 55302U 23010AK  23318.85575046 -.00000884  00000-0 -66324-4 0  9995,2 55302  70.0005 357.0128 0002655 269.1467  90.9388 14.98326527 46574,6950.204,96.107,573.914,570.223,0.0
55302.0,STARLINK-5321,PAYLOAD,2023-11-15 02:56:48,14.98329736,0.0003019,69.9994,356.3401,269.8061,90.2752,-1.5235e-05,-2.75e-06,0.0,0 STARLINK-5321,1 55302U 23010AK  23319.12278563 -.00000275  00000-0 -15235-4 0  9999,2 55302  69.9994 356.3401 0003019 269.8061  90.2752 14.98329736 46300,6950.194,96.107,574.157,569.96,0.0
55302.0,STARLINK-5321,PAYLOAD,2023-11-15 12:33:36,14.98334283,0.0002892,69.9998,355.33,269.738,90.3448,5.0482e-05,5.09e-06,0.0,0 STARLINK-5321,1 55302U 23010AK  23319.52334045  .00000509  00000-0  50482-4 0  9992,2 55302  69.9998 355.3300 0002892 269.7380  90.3448 14.98334283 46678,6950.18,96.107,574.055,570.035,0.0
55302.0,STARLINK-5321,PAYLOAD,2023-11-16 12:35:37,14.98328334,0.0002746,70.0003,352.8061,264.3109,95.7737,0.00010018,1.102e-05,0.0,0 STARLINK-5321,1 55302U 23010AK  23320.52474207  .00001102  00000-0  10018-3 0  9999,2 55302  70.0003 352.8061 0002746 264.3109  95.7737 14.98328334 46829,6950.198,96.107,573.972,570.155,0.0
55302.0,STARLINK-5321,PAYLOAD,2023-11-16 19:00:10,14.98314593,0.0002818,70.0004,352.1314,286.2167,73.8682,0.00028625,3.323e-05,0.0,0 STARLINK-5321,1 55302U 23010AK  23320.79178900  .00003323  00000-0  28625-3 0  9999,2 55302  70.0004 352.1314 0002818 286.2167  73.8682 14.98314593 46559,6950.241,96.108,574.064,570.147,0.0
55302.0,STARLINK-5321,PAYLOAD,2023-11-16 20:36:18,14.9833073,0.0002798,69.9997,351.9635,280.8362,79.2482,6.0684e-06,-2.1e-07,0.0,0 STARLINK-5321,1 55302U 23010AK  23320.85854400 -.00000021  00000-0  60684-5 0  9998,2 55302  69.9997 351.9635 0002798 280.8362  79.2482 14.98330730 46878,6950.191,96.107,574.0,570.111,0.0
55302.0,STARLINK-5321,PAYLOAD,2023-11-17 11:01:30,14.98328219,0.0002599,70.0005,350.4502,258.4784,101.6083,-6.4885e-05,-8.67e-06,0.0,0 STARLINK-5321,1 55302U 23010AK  23321.45938634 -.00000867  00000-0 -64885-4 0  9992,2 55302  70.0005 350.4502 0002599 258.4784 101.6083 14.98328219 46658,6950.198,96.107,573.87,570.257,0.0
55302.0,STARLINK-5321,PAYLOAD,2023-11-17 12:37:38,14.98328765,0.0002649,70.0003,350.2811,260.7026,99.3834,-5.692e-05,-7.72e-06,0.0,0 STARLINK-5321,1 55302U 23010AK  23321.52614570 -.00000772  00000-0 -56920-4 0  9996,2 55302  70.0003 350.2811 0002649 260.7026  99.3834 14.98328765 46976,6950.197,96.107,573.903,570.221,0.0
55302.0,STARLINK-5321,PAYLOAD,2023-11-18 11:03:32,14.98313456,0.0002383,70.0018,347.9236,239.5248,120.5675,0.00013131,1.474e-05,0.0,0 STARLINK-5321,1 55302U 23010AK  23322.46078875  .00001474  00000-0  13131-3 0  9996,2 55302  70.0018 347.9236 0002383 239.5248 120.5675 14.98313456 46804,6950.244,96.108,573.765,570.453,0.0
55302.0,STARLINK-5321,PAYLOAD,2023-11-18 19:04:12,14.98327606,0.0002078,70.002,347.0813,277.1382,82.9541,1.5084e-05,8.7e-07,0.0,0 STARLINK-5321,1 55302U 23010AK  23322.79458544  .00000087  00000-0  15084-4 0  9996,2 55302  70.0020 347.0813 0002078 277.1382  82.9541 14.98327606 46857,6950.2,96.107,573.51,570.621,0.0
55302.0,STARLINK-5321,PAYLOAD,2023-11-19 11:05:31,14.98345547,0.0002263,70.0015,345.3984,257.8606,102.23,0.000282,3.275e-05,0.0,0 STARLINK-5321,1 55302U 23010AK  23323.46216552  .00003275  00000-0  28200-3 0  9997,2 55302  70.0015 345.3984 0002263 257.8606 102.2300 14.98345547 46955,6950.145,96.106,573.583,570.437,0.0
55302.0,STARLINK-5321,PAYLOAD,2023-11-19 19:06:14,14.9830713,0.0002199,70.0023,344.5556,280.5349,79.5562,8.3264e-05,9e-06,0.0,0 STARLINK-5321,1 55302U 23010AK  23323.79599550  .00000900  00000-0  83264-4 0  9999,2 55302  70.0023 344.5556 0002199 280.5349  79.5562 14.98307130 47004,6950.264,96.108,573.657,570.6,0.0
55302.0,STARLINK-5321,PAYLOAD,2023-11-20 03:06:51,14.98346924,0.0002506,70.0006,343.7138,257.5837,102.5041,0.00038655,4.524e-05,0.0,0 STARLINK-5321,1 55302U 23010AK  23324.12975914  .00004524  00000-0  38655-3 0  9998,2 55302  70.0006 343.7138 0002506 257.5837 102.5041 14.98346924 47058,6950.141,96.106,573.747,570.264,0.0
55302.0,STARLINK-5321,PAYLOAD,2023-11-20 11:07:34,14.9831497,0.0002466,70.0007,342.8723,269.4846,90.603,1.7763e-05,1.19e-06,0.0,0 STARLINK-5321,1 55302U 23010AK  23324.46358850  .00000119  00000-0  17763-4 0  9993,2 55302  70.0007 342.8723 0002466 269.4846  90.6030 14.98314970 47417,6950.239,96.108,573.818,570.39,0.0
55302.0,STARLINK-5321,PAYLOAD,2023-11-20 19:08:13,14.98330464,0.0002835,70.0005,342.0308,270.8734,89.21,5.5143e-07,-8.6e-07,0.0,0 STARLINK-5321,1 55302U 23010AK  23324.79737850 -.00000086  00000-0  55143-6 0  9990,2 55302  70.0005 342.0308 0002835 270.8734  89.2100 14.98330464 47157,6950.191,96.107,574.027,570.086,0.0
55302.0,STARLINK-5321,PAYLOAD,2023-11-21 11:09:34,14.983212,0.0002659,69.9994,340.3476,266.879,93.2065,0.00019089,2.185e-05,0.0,0 STARLINK-5321,1 55302U 23010AK  23325.46497897  .00002185  00000-0  19089-3 0  9996,2 55302  69.9994 340.3476 0002659 266.8790  93.2065 14.98321200 47567,6950.22,96.108,573.933,570.237,0.0
55302.0,STARLINK-5321,PAYLOAD,2023-11-22 03:10:54,14.98330292,0.0002936,69.9991,338.6647,270.6202,89.462,-2.725e-05,-4.18e-06,0.0,0 STARLINK-5321,1 55302U 23010AK  23326.13257808 -.00000418  00000-0 -27250-4 0  9996,2 55302  69.9991 338.6647 0002936 270.6202  89.4620 14.98330292 47355,6950.192,96.107,574.098,570.016,0.0
55302.0,STARLINK-5321,PAYLOAD,2023-11-22 11:11:34,14.98332467,0.0002663,69.9995,337.8236,268.7967,91.2887,-8.1102e-06,-1.9e-06,0.0,0 STARLINK-5321,1 55302U 23010AK  23326.46637608 -.00000190  00000-0 -81102-5 0  9996,2 55302  69.9995 337.8236 0002663 268.7967  91.2887 14.98332467 47719,6950.185,96.107,573.901,570.199,0.0
55302.0,STARLINK-5321,PAYLOAD,2023-11-23 03:12:55,14.98332563,0.000258,69.9999,336.1412,263.0552,97.0314,-6.2923e-05,-8.44e-06,0.0,0 STARLINK-5321,1 55302U 23010AK  23327.13397654 -.00000844  00000-0 -62923-4 0  9990,2 55302  69.9999 336.1412 0002580 263.0552  97.0314 14.98332563 47500,6950.185,96.107,573.843,570.257,0.0
55302.0,STARLINK-5321,PAYLOAD,2023-11-23 09:37:28,14.98326706,0.0002391,70.0003,335.4668,258.3323,101.7568,7.9672e-07,-8.3e-07,0.0,0 STARLINK-5321,1 55302U 23010AK  23327.40101926 -.00000083  00000-0  79672-6 0  9990,2 55302  70.0003 335.4668 0002391 258.3323 101.7568 14.98326706 47851,6950.203,96.107,573.73,570.406,0.0
55302.0,STARLINK-5321,PAYLOAD,2023-11-24 03:14:57,14.98320264,0.0002446,70.0004,333.6164,265.4672,94.6208,-6.6111e-05,-8.81e-06,0.0,0 STARLINK-5321,1 55302U 23010AK  23328.13538589 -.00000881  00000-0 -66111-4 0  9999,2 55302  70.0004 333.6164 0002446 265.4672  94.6208 14.98320264 47652,6950.223,96.108,573.788,570.388,0.0
55302.0,STARLINK-5321,PAYLOAD,2023-11-24 09:39:29,14.98320846,0.0002221,70.0005,332.9426,258.2393,101.8517,-5.0989e-05,-7.01e-06,0.0,0 STARLINK-5321,1 55302U 23010AK  23328.40242622 -.00000701  00000-0 -50989-4 0  9996,2 55302  70.0005 332.9426 0002221 258.2393 101.8517 14.98320846 48007,6950.221,96.108,573.63,570.543,0.0
55302.0,STARLINK-5321,PAYLOAD,2023-11-25 03:16:57,14.98330658,0.0002791,69.9988,331.0889,268.4951,91.5888,3.2522e-05,2.95e-06,0.0,0 STARLINK-5321,1 55302U 23010AK  23329.13677737  .00000295  00000-0  32522-4 0  9995,2 55302  69.9988 331.0889 0002791 268.4951  91.5888 14.98330658 47807,6950.191,96.107,573.996,570.116,0.0
